{
  "type": "FeatureCollection",
  "features": [
    {
      "type": "Feature",
      "properties": {
        "norad_id": 24946,
        "name": "IRIDIUM 33",
        "group": "iridium-33-debris",
        "lat": 49.68239512045299,
        "lon": 73.4674898157374,
        "alt_km": 775.01972212274,
        "timestamp": "2025-12-10T09:57:45.082775+00:00",
        "meta_object_name": "IRIDIUM 33",
        "meta_object_id": "1997-051C",
        "meta_epoch": "2025-12-10T04:42:37.391040",
        "meta_mean_motion": 14.35034316,
        "meta_eccentricity": 0.0006746,
        "meta_inclination": 86.3869,
        "meta_ra_of_asc_node": 69.2892,
        "meta_arg_of_pericenter": 209.6544,
        "meta_mean_anomaly": 150.427,
        "meta_ephemeris_type": 0,
        "meta_classification_type": "U",
        "meta_norad_cat_id": 24946,
        "meta_element_set_no": 999,
        "meta_rev_at_epoch": 47798,
        "meta_bstar": 0.00018082,
        "meta_mean_motion_dot": 5.35e-06,
        "meta_mean_motion_ddot": 0,
        "tle_line1": "1 24946U 97051C   25344.19626610  .00000535  00000+0  18082-3 0  9990",
        "tle_line2": "2 24946  86.3869  69.2892 0006746 209.6544 150.4270 14.35034316477980"
      },
      "geometry": {
        "type": "Point",
        "coordinates": [
          73.4674898157374,
          49.68239512045299
        ]
      }
    },
    {
      "type": "Feature",
      "properties": {
        "norad_id": 33773,
        "name": "IRIDIUM 33 DEB",
        "group": "iridium-33-debris",
        "lat": -61.528902011968505,
        "lon": 54.91082744733847,
        "alt_km": 762.2106772179022,
        "timestamp": "2025-12-10T09:57:45.082800+00:00",
        "meta_object_name": "IRIDIUM 33 DEB",
        "meta_object_id": "1997-051L",
        "meta_epoch": "2025-12-10T03:35:34.466208",
        "meta_mean_motion": 14.43247555,
        "meta_eccentricity": 0.0012249,
        "meta_inclination": 86.4014,
        "meta_ra_of_asc_node": 61.6871,
        "meta_arg_of_pericenter": 153.9994,
        "meta_mean_anomaly": 206.1825,
        "meta_ephemeris_type": 0,
        "meta_classification_type": "U",
        "meta_norad_cat_id": 33773,
        "meta_element_set_no": 999,
        "meta_rev_at_epoch": 88310,
        "meta_bstar": 0.00046361,
        "meta_mean_motion_dot": 1.58e-05,
        "meta_mean_motion_ddot": 0,
        "tle_line1": "1 33773U 97051L   25344.14970447  .00001580  00000+0  46361-3 0  9995",
        "tle_line2": "2 33773  86.4014  61.6871 0012249 153.9994 206.1825 14.43247555883109"
      },
      "geometry": {
        "type": "Point",
        "coordinates": [
          54.91082744733847,
          -61.528902011968505
        ]
      }
    },
    {
      "type": "Feature",
      "properties": {
        "norad_id": 33775,
        "name": "IRIDIUM 33 DEB",
        "group": "iridium-33-debris",
        "lat": 36.38840531781773,
        "lon": 53.232048905296644,
        "alt_km": 756.915812695689,
        "timestamp": "2025-12-10T09:57:45.082816+00:00",
        "meta_object_name": "IRIDIUM 33 DEB",
        "meta_object_id": "1997-051N",
        "meta_epoch": "2025-12-09T14:26:01.423104",
        "meta_mean_motion": 14.41458737,
        "meta_eccentricity": 0.0013944,
        "meta_inclination": 86.364,
        "meta_ra_of_asc_node": 50.8934,
        "meta_arg_of_pericenter": 164.3139,
        "meta_mean_anomaly": 332.5697,
        "meta_ephemeris_type": 0,
        "meta_classification_type": "U",
        "meta_norad_cat_id": 33775,
        "meta_element_set_no": 999,
        "meta_rev_at_epoch": 88095,
        "meta_bstar": 0.00057548,
        "meta_mean_motion_dot": 1.888e-05,
        "meta_mean_motion_ddot": 0,
        "tle_line1": "1 33775U 97051N   25343.60140536  .00001888  00000+0  57548-3 0  9995",
        "tle_line2": "2 33775  86.3640  50.8934 0013944 164.3139 332.5697 14.41458737880950"
      },
      "geometry": {
        "type": "Point",
        "coordinates": [
          53.232048905296644,
          36.38840531781773
        ]
      }
    },
    {
      "type": "Feature",
      "properties": {
        "norad_id": 33776,
        "name": "IRIDIUM 33 DEB",
        "group": "iridium-33-debris",
        "lat": -66.2274480422474,
        "lon": 73.54366534124671,
        "alt_km": 772.6062771311763,
        "timestamp": "2025-12-10T09:57:45.082828+00:00",
        "meta_object_name": "IRIDIUM 33 DEB",
        "meta_object_id": "1997-051P",
        "meta_epoch": "2025-12-09T18:17:03.768288",
        "meta_mean_motion": 14.38227801,
        "meta_eccentricity": 0.0013985,
        "meta_inclination": 86.4038,
        "meta_ra_of_asc_node": 82.0263,
        "meta_arg_of_pericenter": 200.3153,
        "meta_mean_anomaly": 312.9237,
        "meta_ephemeris_type": 0,
        "meta_classification_type": "U",
        "meta_norad_cat_id": 33776,
        "meta_element_set_no": 999,
        "meta_rev_at_epoch": 88039,
        "meta_bstar": 0.00057833,
        "meta_mean_motion_dot": 1.777e-05,
        "meta_mean_motion_ddot": 0,
        "tle_line1": "1 33776U 97051P   25343.76184917  .00001777  00000+0  57833-3 0  9998",
        "tle_line2": "2 33776  86.4038  82.0263 0013985 200.3153 312.9237 14.38227801880399"
      },
      "geometry": {
        "type": "Point",
        "coordinates": [
          73.54366534124671,
          -66.2274480422474
        ]
      }
    },
    {
      "type": "Feature",
      "properties": {
        "norad_id": 33777,
        "name": "IRIDIUM 33 DEB",
        "group": "iridium-33-debris",
        "lat": -63.83787867066006,
        "lon": 28.806779099678394,
        "alt_km": 711.8473919686639,
        "timestamp": "2025-12-10T09:57:45.082840+00:00",
        "meta_object_name": "IRIDIUM 33 DEB",
        "meta_object_id": "1997-051Q",
        "meta_epoch": "2025-12-10T03:39:24.506208",
        "meta_mean_motion": 14.55582822,
        "meta_eccentricity": 0.0005073,
        "meta_inclination": 86.3784,
        "meta_ra_of_asc_node": 36.3287,
        "meta_arg_of_pericenter": 261.0241,
        "meta_mean_anomaly": 99.0393,
        "meta_ephemeris_type": 0,
        "meta_classification_type": "U",
        "meta_norad_cat_id": 33777,
        "meta_element_set_no": 999,
        "meta_rev_at_epoch": 88496,
        "meta_bstar": 0.0012422,
        "meta_mean_motion_dot": 5.436e-05,
        "meta_mean_motion_ddot": 0,
        "tle_line1": "1 33777U 97051Q   25344.15236697  .00005436  00000+0  12422-2 0  9996",
        "tle_line2": "2 33777  86.3784  36.3287 0005073 261.0241  99.0393 14.55582822884965"
      },
      "geometry": {
        "type": "Point",
        "coordinates": [
          28.806779099678394,
          -63.83787867066006
        ]
      }
    },
    {
      "type": "Feature",
      "properties": {
        "norad_id": 33850,
        "name": "IRIDIUM 33 DEB",
        "group": "iridium-33-debris",
        "lat": 11.734896194719305,
        "lon": 31.940779887092138,
        "alt_km": 760.6516481017443,
        "timestamp": "2025-12-10T09:57:45.082852+00:00",
        "meta_object_name": "IRIDIUM 33 DEB",
        "meta_object_id": "1997-051T",
        "meta_epoch": "2025-12-10T03:29:36.109248",
        "meta_mean_motion": 14.42137967,
        "meta_eccentricity": 0.0011953,
        "meta_inclination": 86.3419,
        "meta_ra_of_asc_node": 31.2952,
        "meta_arg_of_pericenter": 168.989,
        "meta_mean_anomaly": 244.4174,
        "meta_ephemeris_type": 0,
        "meta_classification_type": "U",
        "meta_norad_cat_id": 33850,
        "meta_element_set_no": 999,
        "meta_rev_at_epoch": 88115,
        "meta_bstar": 0.0004704,
        "meta_mean_motion_dot": 1.567e-05,
        "meta_mean_motion_ddot": 0,
        "tle_line1": "1 33850U 97051T   25344.14555682  .00001567  00000+0  47040-3 0  9991",
        "tle_line2": "2 33850  86.3419  31.2952 0011953 168.9890 244.4174 14.42137967881157"
      },
      "geometry": {
        "type": "Point",
        "coordinates": [
          31.940779887092138,
          11.734896194719305
        ]
      }
    },
    {
      "type": "Feature",
      "properties": {
        "norad_id": 33853,
        "name": "IRIDIUM 33 DEB",
        "group": "iridium-33-debris",
        "lat": 35.95574678413482,
        "lon": -6.259844898451729,
        "alt_km": 1028.3385367535138,
        "timestamp": "2025-12-10T09:57:45.082865+00:00",
        "meta_object_name": "IRIDIUM 33 DEB",
        "meta_object_id": "1997-051W",
        "meta_epoch": "2025-12-09T12:13:24.016800",
        "meta_mean_motion": 13.99031995,
        "meta_eccentricity": 0.02069783,
        "meta_inclination": 85.9998,
        "meta_ra_of_asc_node": 351.2277,
        "meta_arg_of_pericenter": 245.8173,
        "meta_mean_anomaly": 269.932,
        "meta_ephemeris_type": 0,
        "meta_classification_type": "U",
        "meta_norad_cat_id": 33853,
        "meta_element_set_no": 999,
        "meta_rev_at_epoch": 85300,
        "meta_bstar": 0.0029960339,
        "meta_mean_motion_dot": 5.22e-05,
        "meta_mean_motion_ddot": 0,
        "tle_line1": "1 33853U 97051W   25343.50930575  .00005220  00000+0  29960-2 0  9991",
        "tle_line2": "2 33853  85.9998 351.2277 0206978 245.8173 269.9320 13.99031995853007"
      },
      "geometry": {
        "type": "Point",
        "coordinates": [
          -6.259844898451729,
          35.95574678413482
        ]
      }
    }
  ]
}